[{"OBJECT_NAME":"HULIANWANG DIGUI-111","OBJECT_ID":"2025-285G","EPOCH":"2026-03-09T17:43:53.390496","MEAN_MOTION":13.29330588,"ECCENTRICITY":1.134e-5,"INCLINATION":50.0116,"RA_OF_ASC_NODE":142.508,"ARG_OF_PERICENTER":311.0963,"MEAN_ANOMALY":48.99,"EPHEMERIS_TYPE":0,"CLASSIFICATION_TYPE":"U","NORAD_CAT_ID":66921,"ELEMENT_SET_NO":999,"REV_AT_EPOCH":1283,"BSTAR":0.00013324831,"MEAN_MOTION_DOT":-6.2e-7,"MEAN_MOTION_DDOT":0},{"OBJECT_NAME":"COSMOS 2499 DEB","OBJECT_ID":"2014-028BU","EPOCH":"2026-03-08T21:14:31.230816","MEAN_MOTION":13.11284553,"ECCENTRICITY":0.025141,"INCLINATION":82.3078,"RA_OF_ASC_NODE":272.741,"ARG_OF_PERICENTER":113.6888,"MEAN_ANOMALY":249.0829,"EPHEMERIS_TYPE":0,"CLASSIFICATION_TYPE":"U","NORAD_CAT_ID":60608,"ELEMENT_SET_NO":999,"REV_AT_EPOCH":13515,"BSTAR":0.012931721,"MEAN_MOTION_DOT":5.368e-5,"MEAN_MOTION_DDOT":0}]
